[{"OBJECT_NAME":"LEMUR-2-GREENBERG","OBJECT_ID":"2017-042N","EPOCH":"2026-03-09T11:05:17.256192","MEAN_MOTION":15.27971352,"ECCENTRICITY":0.00091572,"INCLINATION":97.3781,"RA_OF_ASC_NODE":249.8007,"ARG_OF_PERICENTER":4.0119,"MEAN_ANOMALY":356.1192,"EPHEMERIS_TYPE":0,"CLASSIFICATION_TYPE":"U","NORAD_CAT_ID":42837,"ELEMENT_SET_NO":999,"REV_AT_EPOCH":47314,"BSTAR":0.00072539172,"MEAN_MOTION_DOT":0.00019778,"MEAN_MOTION_DDOT":0},{"OBJECT_NAME":"STARLINK-34459","OBJECT_ID":"2025-130M","EPOCH":"2026-03-09T09:00:23.976864","MEAN_MOTION":15.30151864,"ECCENTRICITY":0.00014547,"INCLINATION":53.1604,"RA_OF_ASC_NODE":90.0838,"ARG_OF_PERICENTER":92.9143,"MEAN_ANOMALY":267.2024,"EPHEMERIS_TYPE":0,"CLASSIFICATION_TYPE":"U","NORAD_CAT_ID":64449,"ELEMENT_SET_NO":999,"REV_AT_EPOCH":4065,"BSTAR":0.0001734373,"MEAN_MOTION_DOT":4.773e-5,"MEAN_MOTION_DDOT":0}]
